ATLAS CENTAUR R/B       
1 06155U 72065B   26016.05622417  .00000703  00000+0  99324-4 0  9999
2 06155  35.0009 254.1667 0034587 287.0529  72.6384 14.77510225833476
SL-8 R/B                
1 08459U 75112B   26016.26349391  .00000178  00000+0  67084-4 0  9998
2 08459  74.0613 115.3571 0016369 223.1294 136.8579 14.38170640624331
SL-3 R/B                
1 10114U 77057B   26016.24757598  .00008507  00000+0  18927-3 0  9994
2 10114  97.5697 185.9477 0008537 109.6204 250.5966 15.43872972660236
SEASAT 1                
1 10967U 78064A   26016.27023635  .00000212  00000+0  97812-4 0  9996
2 10967 108.0158  15.4884 0001175 278.2584  81.8428 14.46104012498935
SL-14 R/B               
1 11267U 79011B   26015.79505936  .00000485  00000+0  45520-4 0  9999
2 11267  82.5258 146.7468 0014923 230.9106 129.0788 14.91822988520896
SL-8 R/B                
1 11574U 79089B   26016.17046797  .00000271  00000+0  90034-4 0  9996
2 11574  74.0675 188.2531 0015537   9.8903 350.2556 14.42308168428532
SL-14 R/B               
1 11672U 80005B   26015.97472999  .00000499  00000+0  48038-4 0  9998
2 11672  82.5149 357.2256 0015311 345.3859  14.6915 14.90841592468632
SL-8 R/B                
1 12139U 81003B   26016.31497672  .00022059  00000+0  58412-3 0  9992
2 12139  82.9386 338.3768 0271310   1.5584 358.6424 15.08538175306777
SL-3 R/B                
1 12465U 81046B   26016.26115575  .00008335  00000+0  20400-3 0  9991
2 12465  81.2326 352.6111 0018719 196.3382 163.7260 15.40434102430353
SL-3 R/B                
1 12904U 81103B   26016.27606258  .00003189  00000+0  14365-3 0  9992
2 12904  81.1593 274.8964 0014381  99.6192 260.6665 15.20684940965266
SL-3 R/B                
1 13068U 82013B   26016.24144266  .00003068  00000+0  13465-3 0  9994
2 13068  81.1724 222.2145 0022833 359.0887   1.0299 15.21410508396375
SL-3 R/B                
1 13154U 82039B   26016.23825925  .00001766  00000+0  10689-3 0  9993
2 13154  81.1674 276.3979 0029893 136.1646 224.1960 15.09751188373725
