CCSDS_OMM_VERS = 2.0
CREATION_DATE  = 
ORIGINATOR     = 

OBJECT_NAME    = ATLAS CENTAUR R/B
OBJECT_ID      = 1972-065B
CENTER_NAME    = EARTH
REF_FRAME      = TEME
TIME_SYSTEM    = UTC
MEAN_ELEMENT_THEORY = SGP/SGP4

EPOCH          = 2026-01-16T01:20:57.768288
MEAN_MOTION    = 14.77510225
ECCENTRICITY   = .0034587
INCLINATION    = 35.0009
RA_OF_ASC_NODE = 254.1667
ARG_OF_PERICENTER = 287.0529
MEAN_ANOMALY   = 72.6384

EPHEMERIS_TYPE = 0
CLASSIFICATION_TYPE = U
NORAD_CAT_ID   = 6155
ELEMENT_SET_NO = 999
REV_AT_EPOCH   = 83347
BSTAR          = .99323818E-4
MEAN_MOTION_DOT = .703E-5
MEAN_MOTION_DDOT = 0

CCSDS_OMM_VERS = 2.0
CREATION_DATE  = 
ORIGINATOR     = 

OBJECT_NAME    = SL-8 R/B
OBJECT_ID      = 1975-112B
CENTER_NAME    = EARTH
REF_FRAME      = TEME
TIME_SYSTEM    = UTC
MEAN_ELEMENT_THEORY = SGP/SGP4

EPOCH          = 2026-01-16T06:19:25.873824
MEAN_MOTION    = 14.38170640
ECCENTRICITY   = .00163699
INCLINATION    = 74.0613
RA_OF_ASC_NODE = 115.3571
ARG_OF_PERICENTER = 223.1294
MEAN_ANOMALY   = 136.8579

EPHEMERIS_TYPE = 0
CLASSIFICATION_TYPE = U
NORAD_CAT_ID   = 8459
ELEMENT_SET_NO = 999
REV_AT_EPOCH   = 62433
BSTAR          = .6708364E-4
MEAN_MOTION_DOT = .178E-5
MEAN_MOTION_DDOT = 0

CCSDS_OMM_VERS = 2.0
CREATION_DATE  = 
ORIGINATOR     = 

OBJECT_NAME    = SL-3 R/B
OBJECT_ID      = 1977-057B
CENTER_NAME    = EARTH
REF_FRAME      = TEME
TIME_SYSTEM    = UTC
MEAN_ELEMENT_THEORY = SGP/SGP4

EPOCH          = 2026-01-16T05:56:30.564672
MEAN_MOTION    = 15.43872972
ECCENTRICITY   = .00085379
INCLINATION    = 97.5697
RA_OF_ASC_NODE = 185.9477
ARG_OF_PERICENTER = 109.6204
MEAN_ANOMALY   = 250.5966

EPHEMERIS_TYPE = 0
CLASSIFICATION_TYPE = U
NORAD_CAT_ID   = 10114
ELEMENT_SET_NO = 999
REV_AT_EPOCH   = 66023
BSTAR          = .18926706E-3
MEAN_MOTION_DOT = .8507E-4
MEAN_MOTION_DDOT = 0

CCSDS_OMM_VERS = 2.0
CREATION_DATE  = 
ORIGINATOR     = 

OBJECT_NAME    = SEASAT 1
OBJECT_ID      = 1978-064A
CENTER_NAME    = EARTH
REF_FRAME      = TEME
TIME_SYSTEM    = UTC
MEAN_ELEMENT_THEORY = SGP/SGP4

EPOCH          = 2026-01-16T06:29:08.420640
MEAN_MOTION    = 14.46104012
ECCENTRICITY   = .00011751
INCLINATION    = 108.0158
RA_OF_ASC_NODE = 15.4884
ARG_OF_PERICENTER = 278.2584
MEAN_ANOMALY   = 81.8428

EPHEMERIS_TYPE = 0
CLASSIFICATION_TYPE = U
NORAD_CAT_ID   = 10967
ELEMENT_SET_NO = 999
REV_AT_EPOCH   = 49893
BSTAR          = .97811916E-4
MEAN_MOTION_DOT = .212E-5
MEAN_MOTION_DDOT = 0

CCSDS_OMM_VERS = 2.0
CREATION_DATE  = 
ORIGINATOR     = 

OBJECT_NAME    = SL-14 R/B
OBJECT_ID      = 1979-011B
CENTER_NAME    = EARTH
REF_FRAME      = TEME
TIME_SYSTEM    = UTC
MEAN_ELEMENT_THEORY = SGP/SGP4

EPOCH          = 2026-01-15T19:04:53.128704
MEAN_MOTION    = 14.91822988
ECCENTRICITY   = .00149237
INCLINATION    = 82.5258
RA_OF_ASC_NODE = 146.7468
ARG_OF_PERICENTER = 230.9106
MEAN_ANOMALY   = 129.0788

EPHEMERIS_TYPE = 0
CLASSIFICATION_TYPE = U
NORAD_CAT_ID   = 11267
ELEMENT_SET_NO = 999
REV_AT_EPOCH   = 52089
BSTAR          = .45520252E-4
MEAN_MOTION_DOT = .485E-5
MEAN_MOTION_DDOT = 0

CCSDS_OMM_VERS = 2.0
CREATION_DATE  = 
ORIGINATOR     = 

OBJECT_NAME    = SL-8 R/B
OBJECT_ID      = 1979-089B
CENTER_NAME    = EARTH
REF_FRAME      = TEME
TIME_SYSTEM    = UTC
MEAN_ELEMENT_THEORY = SGP/SGP4

EPOCH          = 2026-01-16T04:05:28.432608
MEAN_MOTION    = 14.42308168
ECCENTRICITY   = .00155378
INCLINATION    = 74.0675
RA_OF_ASC_NODE = 188.2531
ARG_OF_PERICENTER = 9.8903
MEAN_ANOMALY   = 350.2556

EPHEMERIS_TYPE = 0
CLASSIFICATION_TYPE = U
NORAD_CAT_ID   = 11574
ELEMENT_SET_NO = 999
REV_AT_EPOCH   = 42853
BSTAR          = .90034391E-4
MEAN_MOTION_DOT = .271E-5
MEAN_MOTION_DDOT = 0

CCSDS_OMM_VERS = 2.0
CREATION_DATE  = 
ORIGINATOR     = 

OBJECT_NAME    = SL-14 R/B
OBJECT_ID      = 1980-005B
CENTER_NAME    = EARTH
REF_FRAME      = TEME
TIME_SYSTEM    = UTC
MEAN_ELEMENT_THEORY = SGP/SGP4

EPOCH          = 2026-01-15T23:23:36.671136
MEAN_MOTION    = 14.90841592
ECCENTRICITY   = .00153116
INCLINATION    = 82.5149
RA_OF_ASC_NODE = 357.2256
ARG_OF_PERICENTER = 345.3859
MEAN_ANOMALY   = 14.6915

EPHEMERIS_TYPE = 0
CLASSIFICATION_TYPE = U
NORAD_CAT_ID   = 11672
ELEMENT_SET_NO = 999
REV_AT_EPOCH   = 46863
BSTAR          = .48037921E-4
MEAN_MOTION_DOT = .499E-5
MEAN_MOTION_DDOT = 0

CCSDS_OMM_VERS = 2.0
CREATION_DATE  = 
ORIGINATOR     = 

OBJECT_NAME    = SL-8 R/B
OBJECT_ID      = 1981-003B
CENTER_NAME    = EARTH
REF_FRAME      = TEME
TIME_SYSTEM    = UTC
MEAN_ELEMENT_THEORY = SGP/SGP4

EPOCH          = 2026-01-16T07:33:33.988608
MEAN_MOTION    = 15.08538175
ECCENTRICITY   = .02713107
INCLINATION    = 82.9386
RA_OF_ASC_NODE = 338.3768
ARG_OF_PERICENTER = 1.5584
MEAN_ANOMALY   = 358.6424

EPHEMERIS_TYPE = 0
CLASSIFICATION_TYPE = U
NORAD_CAT_ID   = 12139
ELEMENT_SET_NO = 999
REV_AT_EPOCH   = 30677
BSTAR          = .58412425E-3
MEAN_MOTION_DOT = .22059E-3
MEAN_MOTION_DDOT = 0

CCSDS_OMM_VERS = 2.0
CREATION_DATE  = 
ORIGINATOR     = 

OBJECT_NAME    = SL-3 R/B
OBJECT_ID      = 1981-046B
CENTER_NAME    = EARTH
REF_FRAME      = TEME
TIME_SYSTEM    = UTC
MEAN_ELEMENT_THEORY = SGP/SGP4

EPOCH          = 2026-01-16T06:16:03.856800
MEAN_MOTION    = 15.40434102
ECCENTRICITY   = .00187197
INCLINATION    = 81.2326
RA_OF_ASC_NODE = 352.6111
ARG_OF_PERICENTER = 196.3382
MEAN_ANOMALY   = 163.7260

EPHEMERIS_TYPE = 0
CLASSIFICATION_TYPE = U
NORAD_CAT_ID   = 12465
ELEMENT_SET_NO = 999
REV_AT_EPOCH   = 43035
BSTAR          = .2039965E-3
MEAN_MOTION_DOT = .8335E-4
MEAN_MOTION_DDOT = 0

CCSDS_OMM_VERS = 2.0
CREATION_DATE  = 
ORIGINATOR     = 

OBJECT_NAME    = SL-3 R/B
OBJECT_ID      = 1981-103B
CENTER_NAME    = EARTH
REF_FRAME      = TEME
TIME_SYSTEM    = UTC
MEAN_ELEMENT_THEORY = SGP/SGP4

EPOCH          = 2026-01-16T06:37:31.806912
MEAN_MOTION    = 15.20684940
ECCENTRICITY   = .00143814
INCLINATION    = 81.1593
RA_OF_ASC_NODE = 274.8964
ARG_OF_PERICENTER = 99.6192
MEAN_ANOMALY   = 260.6665

EPHEMERIS_TYPE = 0
CLASSIFICATION_TYPE = U
NORAD_CAT_ID   = 12904
ELEMENT_SET_NO = 999
REV_AT_EPOCH   = 96526
BSTAR          = .14365296E-3
MEAN_MOTION_DOT = .3189E-4
MEAN_MOTION_DDOT = 0

CCSDS_OMM_VERS = 2.0
CREATION_DATE  = 
ORIGINATOR     = 

OBJECT_NAME    = SL-3 R/B
OBJECT_ID      = 1982-013B
CENTER_NAME    = EARTH
REF_FRAME      = TEME
TIME_SYSTEM    = UTC
MEAN_ELEMENT_THEORY = SGP/SGP4

EPOCH          = 2026-01-16T05:47:40.645824
MEAN_MOTION    = 15.21410508
ECCENTRICITY   = .00228332
INCLINATION    = 81.1724
RA_OF_ASC_NODE = 222.2145
ARG_OF_PERICENTER = 359.0887
MEAN_ANOMALY   = 1.0299

EPHEMERIS_TYPE = 0
CLASSIFICATION_TYPE = U
NORAD_CAT_ID   = 13068
ELEMENT_SET_NO = 999
REV_AT_EPOCH   = 39637
BSTAR          = .13465156E-3
MEAN_MOTION_DOT = .3068E-4
MEAN_MOTION_DDOT = 0

CCSDS_OMM_VERS = 2.0
CREATION_DATE  = 
ORIGINATOR     = 

OBJECT_NAME    = SL-3 R/B
OBJECT_ID      = 1982-039B
CENTER_NAME    = EARTH
REF_FRAME      = TEME
TIME_SYSTEM    = UTC
MEAN_ELEMENT_THEORY = SGP/SGP4

EPOCH          = 2026-01-16T05:43:05.599200
MEAN_MOTION    = 15.09751188
ECCENTRICITY   = .0029893
INCLINATION    = 81.1674
RA_OF_ASC_NODE = 276.3979
ARG_OF_PERICENTER = 136.1646
MEAN_ANOMALY   = 224.1960

EPHEMERIS_TYPE = 0
CLASSIFICATION_TYPE = U
NORAD_CAT_ID   = 13154
ELEMENT_SET_NO = 999
REV_AT_EPOCH   = 37372
BSTAR          = .1068934E-3
MEAN_MOTION_DOT = .1766E-4
MEAN_MOTION_DDOT = 0

